26081,GLOBALSTAR M063,2000,121.4,-1.0,-,51.99,Inactive,0,LEO,USA,Globalstar,Unknown,Unknown,Unknown,1 26081U 00008A   24112.40875312 -.00000031  00000+0  75647-3 0  9991,2 26081  51.9922 142.3683 0004773 224.2568 240.2621 11.86153441107520,11.86153441,0.0004773,LEO
26082,GLOBALSTAR M062,2000,115.81,-1.0,-,51.98,Inactive,0,LEO,USA,Globalstar,Unknown,Unknown,Unknown,1 26082U 00008B   24112.59878551 -.00000164  00000+0 -47160-3 0  9997,2 26082  51.9847 255.5137 0006369 290.8555 150.2065 12.43432899444174,12.43432899,0.0006369,LEO
26083,GLOBALSTAR M060,2000,118.26,-1.0,-,52.0,Inactive,0,LEO,USA,Globalstar,Unknown,Unknown,Unknown,1 26083U 00008C   24112.30167672  .00000018  00000+0  10789-2 0  9994,2 26083  51.9991 156.7101 0003180 346.7746  92.8417 12.17631067100977,12.17631067,0.000318,LEO
26084,GLOBALSTAR M064,2000,121.16,-1.0,-,52.0,Inactive,0,LEO,USA,Globalstar,Unknown,Unknown,Unknown,1 26084U 00008D   24112.54975658 -.00000059  00000+0  35204-3 0  9998,2 26084  52.0026 245.7968 0000800 343.2898  16.7908 11.88518120116962,11.8851812,8e-05,LEO
31571,GLOBALSTAR M065,2007,114.11,450.0,P,51.99,Active,1,LEO,Kazakhstan,Globalstar,Commercial,Communications,Soyuz,1 31571U 07020A   24112.08518573 -.00000036  00000+0  38023-3 0  9991,2 31571  51.9900  70.9631 0010644  92.7140 348.4582 12.61967558780118,12.61967558,0.0010644,LEO
31573,GLOBALSTAR M069,2007,114.08,450.0,+,52.0,Active,1,LEO,Kazakhstan,Globalstar,Commercial,Communications,Soyuz,1 31573U 07020C   24112.18679484 -.00000038  00000+0  36630-3 0  9997,2 31573  51.9977  26.5554 0000656  44.6013 102.1964 12.62270044781255,12.62270044,6.56e-05,LEO
31574,GLOBALSTAR M072,2007,114.08,450.0,+,52.01,Active,1,LEO,Kazakhstan,Globalstar,Commercial,Communications,Soyuz,1 31574U 07020D   24112.42090002 -.00000045  00000+0  32932-3 0  9997,2 31574  52.0059 121.7278 0000144 270.1698 241.3442 12.62270275779550,12.62270275,1.44e-05,LEO
31576,GLOBALSTAR M071,2007,114.08,450.0,+,52.01,Active,1,LEO,Kazakhstan,Globalstar,Commercial,Communications,Soyuz,1 31576U 07020F   24111.96078671 -.00000039  00000+0  36074-3 0  9999,2 31576  52.0091  32.3628 0000624 347.8856  91.8390 12.62271669442415,12.62271669,6.24e-05,LEO
